*******************************************************************************
JPL/HORIZONS              4317 Garibaldi (1980 DA1)        2023-Sep-04 11:28:32
Rec #:    4317 (+COV) Soln.date: 2023-Aug-23_17:42:34   # obs: 3725 (1980-2023)
 
IAU76/J2000 helio. ecliptic osc. elements (au, days, deg., period=Julian yrs):
 
  EPOCH=  2457679.5 ! 2016-Oct-18.00 (TDB)         Residual RMS= .24587
   EC= .1619374885816535   QR= 3.349631202882919   TP= 2458633.7031963938
   OM= 38.46831397599272   W=  94.93264008256412   IN= 9.818543310551497
   A= 3.99687512237478     MA= 242.3033581177649   ADIST= 4.644119041866641
   PER= 7.99078            N= .12334547            ANGMOM= .033936834
   DAN= 3.94702            DDN= 3.83861            L= 133.4739078
   B= 9.781821900000001    MOID= 2.38504004        TP= 2019-May-30.2031963938
 
Asteroid physical parameters (km, seconds, rotational period in hours):
   GM= n.a.                RAD= 19.303             ROTPER= 8.917
   H= 11.07                G= .150                 B-V= n.a.
                           ALBEDO= .052            STYP= n.a.

ASTEROID comments: 
1: soln ref.= JPL#51, OCC=0
2: source=ORB
*******************************************************************************


*******************************************************************************
Ephemeris / API_USER Mon Sep  4 11:28:32 2023 Pasadena, USA      / Horizons
*******************************************************************************
Target body name: 4317 Garibaldi (1980 DA1)       {source: JPL#51}
Center body name: Solar System Barycenter (0)     {source: DE441}
Center-site name: BODY CENTER
*******************************************************************************
Start time      : A.D. 2023-Aug-12 00:00:00.0000 TDB
Stop  time      : A.D. 2023-Aug-13 00:00:00.0000 TDB
Step-size       : 2880 minutes
*******************************************************************************
Center geodetic : 0.0, 0.0, 0.0                   {E-lon(deg),Lat(deg),Alt(km)}
Center cylindric: 0.0, 0.0, 0.0                   {E-lon(deg),Dxy(km),Dz(km)}
Center radii    : (undefined)
Small perturbers: Yes                             {source: SB441-N16}
Output units    : KM-S
Calendar mode   : Mixed Julian/Gregorian
Output type     : GEOMETRIC cartesian states
Output format   : 2 (position and velocity)
Reference frame : Ecliptic of J2000.0
*******************************************************************************
Initial IAU76/J2000 heliocentric ecliptic osculating elements (au, days, deg.):
  EPOCH=  2457679.5 ! 2016-Oct-18.00 (TDB)         Residual RMS= .24587        
   EC= .1619374885816535   QR= 3.349631202882919   TP= 2458633.7031963938      
   OM= 38.46831397599272   W=  94.93264008256412   IN= 9.818543310551497       
  Equivalent ICRF heliocentric cartesian coordinates (au, au/d):
   X= 4.345835533076396E+00  Y= 2.689422905032923E-01  Z=-3.791839016334393E-01
  VX=-1.094418192405949E-03 VY= 6.577255590621905E-03 VZ= 4.112846808050694E-03
Asteroid physical parameters (km, seconds, rotational period in hours):        
   GM= n.a.                RAD= 19.303             ROTPER= 8.917               
   H= 11.07                G= .150                 B-V= n.a.                   
                           ALBEDO= .052            STYP= n.a.                  
*******************************************************************************
JDTDB
   X     Y     Z
   VX    VY    VZ
*******************************************************************************
$$SOE
2460168.500000000 = A.D. 2023-Aug-12 00:00:00.0000 TDB 
 X = 5.261111786168973E+08 Y =-4.317300239514301E+08 Z =-1.152382573560750E+08
 VX= 7.863759719614150E+00 VY= 9.966360307006067E+00 VZ= 5.072654891347583E-01
$$EOE
*******************************************************************************
 
TIME

  Barycentric Dynamical Time ("TDB" or T_eph) output was requested. This
continuous coordinate time is equivalent to the relativistic proper time
of a clock at rest in a reference frame co-moving with the solar system
barycenter but outside the system's gravity well. It is the independent
variable in the solar system relativistic equations of motion.

  TDB runs at a uniform rate of one SI second per second and is independent
of irregularities in Earth's rotation.
 
CALENDAR SYSTEM

  Mixed calendar mode was active such that calendar dates after AD 1582-Oct-15
(if any) are in the modern Gregorian system. Dates prior to 1582-Oct-5 (if any)
are in the Julian calendar system, which is automatically extended for dates
prior to its adoption on 45-Jan-1 BC.  The Julian calendar is useful for
matching historical dates. The Gregorian calendar more accurately corresponds
to the Earth's orbital motion and seasons. A "Gregorian-only" calendar mode is
available if such physical events are the primary interest.

REFERENCE FRAME AND COORDINATES

  Ecliptic at the standard reference epoch

    Reference epoch: J2000.0
    X-Y plane: adopted Earth orbital plane at the reference epoch
               Note: IAU76 obliquity of 84381.448 arcseconds wrt ICRF X-Y plane
    X-axis   : ICRF
    Z-axis   : perpendicular to the X-Y plane in the directional (+ or -) sense
               of Earth's north pole at the reference epoch.

  Symbol meaning:

    JDTDB    Julian Day Number, Barycentric Dynamical Time
      X      X-component of position vector (km)
      Y      Y-component of position vector (km)
      Z      Z-component of position vector (km)
      VX     X-component of velocity vector (km/sec)                           
      VY     Y-component of velocity vector (km/sec)                           
      VZ     Z-component of velocity vector (km/sec)                           

ABERRATIONS AND CORRECTIONS

 Geometric state vectors have NO corrections or aberrations applied.

Computations by ...

    Solar System Dynamics Group, Horizons On-Line Ephemeris System
    4800 Oak Grove Drive, Jet Propulsion Laboratory
    Pasadena, CA  91109   USA

    General site: https://ssd.jpl.nasa.gov/
    Mailing list: https://ssd.jpl.nasa.gov/email_list.html
    System news : https://ssd.jpl.nasa.gov/horizons/news.html
    User Guide  : https://ssd.jpl.nasa.gov/horizons/manual.html
    Connect     : browser        https://ssd.jpl.nasa.gov/horizons/app.html#/x
                  API            https://ssd-api.jpl.nasa.gov/doc/horizons.html
                  command-line   telnet ssd.jpl.nasa.gov 6775
                  e-mail/batch   https://ssd.jpl.nasa.gov/ftp/ssd/hrzn_batch.txt
                  scripts        https://ssd.jpl.nasa.gov/ftp/ssd/SCRIPTS
    Author      : Jon.D.Giorgini@jpl.nasa.gov
*******************************************************************************
